STARLINK-2461
1 18428C 21040A   21326.17554418  .00001909  00000-0  12789-3 0  3265
2 18428  53.0555  27.9452 0001278  77.5920  62.1946 15.06405477    16
